SENTINEL-6              
1 46984U 20086A   24004.56949929 -.00000032  00000+0  12571-3 0  9994
2 46984  66.0389 193.1818 0007637 269.5849  90.4291 12.80929847145748
